H1 CPF  1  DGF 2022 09 11 10  7541 larets     NONE      
H2   304206 5557    27944 2022 09 11 00 00 00 2022 09 18 00 00 00    30 1 1  0 0 0
H5  0.0650
H9
10 0 59837  28800.000000  0        224287.422       6128097.420      -3528551.974
10 0 59837  28830.000000  0        270363.328       6012495.228      -3719064.615
10 0 59837  28860.000000  0        315647.397       5890634.789      -3905802.193
10 0 59837  28890.000000  0        360066.959       5762643.592      -4088575.869
10 0 59837  28920.000000  0        403550.804       5628655.568      -4267200.890
10 0 59837  28950.000000  0        446029.277       5488810.935      -4441496.769
10 0 59837  28980.000000  0        487434.374       5343256.052      -4611287.463
10 0 59837  29010.000000  0        527699.839       5192143.250      -4776401.544
10 0 59837  29040.000000  0        566761.255       5035630.675      -4936672.365
10 0 59837  29070.000000  0        604556.131       4873882.110      -5091938.225
10 0 59837  29100.000000  0        641023.991       4707066.801      -5242042.521
10 0 59837  29130.000000  0        676106.453       4535359.273      -5386833.903
10 0 59837  29160.000000  0        709747.311       4358939.144      -5526166.416
10 0 59837  29190.000000  0        741892.613       4177990.933      -5659899.640
10 0 59837  29220.000000  0        772490.730       3992703.859      -5787898.828
10 0 59837  29250.000000  0        801492.429       3803271.647      -5910035.028
10 0 59837  29280.000000  0        828850.936       3609892.315      -6026185.209
10 0 59837  29310.000000  0        854522.007       3412767.968      -6136232.376
10 0 59837  29340.000000  0        878463.981       3212104.587      -6240065.674
10 0 59837  29370.000000  0        900637.843       3008111.812      -6337580.500
10 0 59837  29400.000000  0        921007.271       2801002.724      -6428678.591
10 0 59837  29430.000000  0        939538.691       2590993.622      -6513268.120
10 0 59837  29460.000000  0        956201.319       2378303.803      -6591263.777
10 0 59837  29490.000000  0        970967.206       2163155.341      -6662586.851
10 0 59837  29520.000000  0        983811.274       1945772.851      -6727165.312
10 0 59837  29550.000000  0        994711.354       1726383.262      -6784933.870
10 0 59837  29580.000000  0       1003648.211       1505215.578      -6835834.043
10 0 59837  29610.000000  0       1010605.577       1282500.648      -6879814.207
10 0 59837  29640.000000  0       1015570.171       1058470.928      -6916829.647
10 0 59837  29670.000000  0       1018531.721        833360.245      -6946842.600
10 0 59837  29700.000000  0       1019482.981        607403.557      -6969822.291
10 0 59837  29730.000000  0       1018419.740        380836.714      -6985744.968
10 0 59837  29760.000000  0       1015340.832        153896.210      -6994593.921
10 0 59837  29790.000000  0       1010248.137        -73181.055      -6996359.501
10 0 59837  29820.000000  0       1003146.581       -300158.014      -6991039.125
10 0 59837  29850.000000  0        994044.131       -526797.677      -6978637.286
10 0 59837  29880.000000  0        982951.793       -752863.370      -6959165.549
10 0 59837  29910.000000  0        969883.591       -978118.979      -6932642.544
10 0 59837  29940.000000  0        954856.563      -1202329.187      -6899093.950
10 0 59837  29970.000000  0        937890.731      -1425259.714      -6858552.478
10 0 59837  30000.000000  0        919009.084      -1646677.557      -6811057.847
10 0 59837  30030.000000  0        898237.554      -1866351.228      -6756656.749
10 0 59837  30060.000000  0        875604.978      -2084050.987      -6695402.821
10 0 59837  30090.000000  0        851143.074      -2299549.093      -6627356.599
10 0 59837  30120.000000  0        824886.393      -2512620.032      -6552585.471
10 0 59837  30150.000000  0        796872.281      -2723040.763      -6471163.620
10 0 59837  30180.000000  0        767140.828      -2930590.952      -6383171.953
10 0 59837  30210.000000  0        735734.818      -3135053.198      -6288698.035
10 0 59837  30240.000000  0        702699.674      -3336213.270      -6187836.006
10 0 59837  30270.000000  0        668083.405      -3533860.327      -6080686.495
10 0 59837  30300.000000  0        631936.541      -3727787.141      -5967356.535
10 0 59837  30330.000000  0        594312.074      -3917790.323      -5847959.463
10 0 59837  30360.000000  0        555265.387      -4103670.532      -5722614.818
10 0 59837  30390.000000  0        514854.183      -4285232.697      -5591448.235
10 0 59837  30420.000000  0        473138.413      -4462286.227      -5454591.327
10 0 59837  30450.000000  0        430180.192      -4634645.215      -5312181.567
10 0 59837  30480.000000  0        386043.722      -4802128.646      -5164362.154
10 0 59837  30510.000000  0        340795.203      -4964560.595      -5011281.886
10 0 59837  30540.000000  0        294502.752      -5121770.421      -4853095.014
10 0 59837  30570.000000  0        247236.301      -5273592.958      -4689961.096
10 0 59837  30600.000000  0        199067.514      -5419868.703      -4522044.844
10 0 59837  30630.000000  0        150069.685      -5560443.988      -4349515.961
10 0 59837  30660.000000  0        100317.637      -5695171.160      -4172548.979
10 0 59837  30690.000000  0         49887.625      -5823908.743      -3991323.085
10 0 59837  30720.000000  0         -1142.770      -5946521.599      -3806021.945
10 0 59837  30750.000000  0        -52694.751      -6062881.085      -3616833.523
10 0 59837  30780.000000  0       -104688.408      -6172865.197      -3423949.893
10 0 59837  30810.000000  0       -157042.834      -6276358.713      -3227567.051
10 0 59837  30840.000000  0       -209676.233      -6373253.329      -3027884.715
10 0 59837  30870.000000  0       -262506.041      -6463447.788      -2825106.120
10 0 59837  30900.000000  0       -315449.035      -6546847.996      -2619437.816
10 0 59837  30930.000000  0       -368421.455      -6623367.137      -2411089.450
10 0 59837  30960.000000  0       -421339.121      -6692925.774      -2200273.549
10 0 59837  30990.000000  0       -474117.556      -6755451.941      -1987205.300
10 0 59837  31020.000000  0       -526672.101      -6810881.232      -1772102.328
10 0 59837  31050.000000  0       -578918.040      -6859156.874      -1555184.465
10 0 59837  31080.000000  0       -630770.722      -6900229.796      -1336673.524
10 0 59837  31110.000000  0       -682145.682      -6934058.692      -1116793.060
10 0 59837  31140.000000  0       -732958.764      -6960610.064       -895768.139
10 0 59837  31170.000000  0       -783126.242      -6979858.268       -673825.095
10 0 59837  31200.000000  0       -832564.946      -6991785.538       -451191.297
10 0 59837  31230.000000  0       -881192.378      -6996382.017       -228094.901
10 0 59837  31260.000000  0       -928926.837      -6993645.761         -4764.615
10 0 59837  31290.000000  0       -975687.540      -6983582.749        218570.551
10 0 59837  31320.000000  0      -1021394.741      -6966206.875        441681.524
10 0 59837  31350.000000  0      -1065969.850      -6941539.933        664339.418
10 0 59837  31380.000000  0      -1109335.548      -6909611.590        886315.775
10 0 59837  31410.000000  0      -1151415.908      -6870459.353       1107382.813
10 0 59837  31440.000000  0      -1192136.503      -6824128.525       1327313.669
10 0 59837  31470.000000  0      -1231424.522      -6770672.147       1545882.644
10 0 59837  31500.000000  0      -1269208.877      -6710150.938       1762865.440
10 0 59837  31530.000000  0      -1305420.311      -6642633.220       1978039.405
10 0 59837  31560.000000  0      -1339991.505      -6568194.838       2191183.769
10 0 59837  31590.000000  0      -1372857.180      -6486919.065       2402079.876
10 0 59837  31620.000000  0      -1403954.195      -6398896.508       2610511.422
10 0 59837  31650.000000  0      -1433221.646      -6304224.998       2816264.682
10 0 59837  31680.000000  0      -1460600.960      -6203009.469       3019128.738
10 0 59837  31710.000000  0      -1486035.981      -6095361.838       3218895.702
10 0 59837  31740.000000  0      -1509473.057      -5981400.866       3415360.933
10 0 59837  31770.000000  0      -1530861.129      -5861252.016       3608323.250
10 0 59837  31800.000000  0      -1550151.805      -5735047.309       3797585.141
10 0 59837  31830.000000  0      -1567299.438      -5602925.167       3982952.969
10 0 59837  31860.000000  0      -1582261.204      -5465030.246       4164237.166
10 0 59837  31890.000000  0      -1594997.165      -5321513.277       4341252.435
10 0 59837  31920.000000  0      -1605470.335      -5172530.887       4513817.935
10 0 59837  31950.000000  0      -1613646.748      -5018245.421       4681757.470
10 0 59837  31980.000000  0      -1619495.510      -4858824.754       4844899.669
10 0 59837  32010.000000  0      -1622988.854      -4694442.099       5003078.161
10 0 59837  32040.000000  0      -1624102.191      -4525275.808       5156131.744
10 0 59837  32070.000000  0      -1622814.152      -4351509.166       5303904.554
10 0 59837  32100.000000  0      -1619106.634      -4173330.178       5446246.213
10 0 59837  32130.000000  0      -1612964.829      -3990931.356       5583011.983
10 0 59837  32160.000000  0      -1604377.260      -3804509.499       5714062.903
10 0 59837  32190.000000  0      -1593335.806      -3614265.471       5839265.928
10 0 59837  32220.000000  0      -1579835.724      -3420403.981       5958494.053
10 0 59837  32250.000000  0      -1563875.667      -3223133.350       6071626.438
10 0 59837  32280.000000  0      -1545457.695      -3022665.280       6178548.523
10 0 59837  32310.000000  0      -1524587.290      -2819214.629       6279152.136
10 0 59837  32340.000000  0      -1501273.354      -2612999.169       6373335.593
10 0 59837  32370.000000  0      -1475528.217      -2404239.353       6461003.799
99
